[{"OBJECT_NAME":"FLOCK 4BE-12","OBJECT_ID":"2024-149CW","EPOCH":"2026-03-03T03:04:10.949664","MEAN_MOTION":15.4505429,"ECCENTRICITY":0.0005609,"INCLINATION":97.3775,"RA_OF_ASC_NODE":145.988,"ARG_OF_PERICENTER":283.0582,"MEAN_ANOMALY":77.004,"EPHEMERIS_TYPE":0,"CLASSIFICATION_TYPE":"U","NORAD_CAT_ID":60560,"ELEMENT_SET_NO":999,"REV_AT_EPOCH":8605,"BSTAR":0.0023575,"MEAN_MOTION_DOT":0.00112783,"MEAN_MOTION_DDOT":0},{"OBJECT_NAME":"FLOCK 4BE-3","OBJECT_ID":"2024-149CX","EPOCH":"2026-03-03T03:48:27.901728","MEAN_MOTION":15.37899632,"ECCENTRICITY":0.0003157,"INCLINATION":97.3759,"RA_OF_ASC_NODE":145.3141,"ARG_OF_PERICENTER":310.1985,"MEAN_ANOMALY":49.8983,"EPHEMERIS_TYPE":0,"CLASSIFICATION_TYPE":"U","NORAD_CAT_ID":60561,"ELEMENT_SET_NO":999,"REV_AT_EPOCH":8602,"BSTAR":0.00057029,"MEAN_MOTION_DOT":0.00021202,"MEAN_MOTION_DDOT":0},{"OBJECT_NAME":"FLOCK 4BE-19","OBJECT_ID":"2024-149CZ","EPOCH":"2026-03-03T04:11:10.059072","MEAN_MOTION":15.3999612,"ECCENTRICITY":0.0003216,"INCLINATION":97.3797,"RA_OF_ASC_NODE":146.4101,"ARG_OF_PERICENTER":316.7072,"MEAN_ANOMALY":43.3921,"EPHEMERIS_TYPE":0,"CLASSIFICATION_TYPE":"U","NORAD_CAT_ID":60563,"ELEMENT_SET_NO":999,"REV_AT_EPOCH":8608,"BSTAR":0.00059869,"MEAN_MOTION_DOT":0.00023847,"MEAN_MOTION_DDOT":0},{"OBJECT_NAME":"PELICAN-2","OBJECT_ID":"2025-009Y","EPOCH":"2026-03-03T03:57:02.336832","MEAN_MOTION":15.40305506,"ECCENTRICITY":0.0007328,"INCLINATION":97.407,"RA_OF_ASC_NODE":152.3929,"ARG_OF_PERICENTER":226.4267,"MEAN_ANOMALY":133.6371,"EPHEMERIS_TYPE":0,"CLASSIFICATION_TYPE":"U","NORAD_CAT_ID":62631,"ELEMENT_SET_NO":999,"REV_AT_EPOCH":6323,"BSTAR":0.0017556,"MEAN_MOTION_DOT":0.0007129,"MEAN_MOTION_DDOT":0},{"OBJECT_NAME":"PELICAN-3","OBJECT_ID":"2025-188A","EPOCH":"2026-03-02T15:51:09.282240","MEAN_MOTION":15.40637623,"ECCENTRICITY":0.00031693,"INCLINATION":97.2276,"RA_OF_ASC_NODE":139.2926,"ARG_OF_PERICENTER":183.0757,"MEAN_ANOMALY":177.0471,"EPHEMERIS_TYPE":0,"CLASSIFICATION_TYPE":"U","NORAD_CAT_ID":65315,"ELEMENT_SET_NO":999,"REV_AT_EPOCH":2891,"BSTAR":0.00010374744,"MEAN_MOTION_DOT":4.143e-5,"MEAN_MOTION_DDOT":0},{"OBJECT_NAME":"PELICAN-4","OBJECT_ID":"2025-188B","EPOCH":"2026-03-03T03:08:20.505696","MEAN_MOTION":15.40585663,"ECCENTRICITY":0.0005538,"INCLINATION":97.2374,"RA_OF_ASC_NODE":139.844,"ARG_OF_PERICENTER":115.6333,"MEAN_ANOMALY":244.5486,"EPHEMERIS_TYPE":0,"CLASSIFICATION_TYPE":"U","NORAD_CAT_ID":65316,"ELEMENT_SET_NO":999,"REV_AT_EPOCH":2898,"BSTAR":0.00028182,"MEAN_MOTION_DOT":0.00011389,"MEAN_MOTION_DDOT":0}]
