FLOCK 4BE-12            
1 60560U 24149CW  26062.12790451  .00112783  00000+0  23575-2 0  9997
2 60560  97.3775 145.9880 0005609 283.0582  77.0040 15.45054290 86052
FLOCK 4BE-3             
1 60561U 24149CX  26062.15865627  .00021202  00000+0  57029-3 0  9996
2 60561  97.3759 145.3141 0003157 310.1985  49.8983 15.37899632 86022
FLOCK 4BE-19            
1 60563U 24149CZ  26062.17442198  .00023847  00000+0  59869-3 0  9995
2 60563  97.3797 146.4101 0003216 316.7072  43.3921 15.39996120 86088
PELICAN-2               
1 62631U 25009Y   26062.16461038  .00071290  00000+0  17556-2 0  9993
2 62631  97.4070 152.3929 0007328 226.4267 133.6371 15.40305506 63234
PELICAN-3               
1 65315U 25188A   26061.66052410  .00004143  00000+0  10375-3 0  9993
2 65315  97.2276 139.2926 0003169 183.0757 177.0471 15.40637623 28911
PELICAN-4               
1 65316U 25188B   26062.13079289  .00011389  00000+0  28182-3 0  9995
2 65316  97.2374 139.8440 0005538 115.6333 244.5486 15.40585663 28980
